[{"OBJECT_NAME":"STARLINK-34748","OBJECT_ID":"2025-152G","EPOCH":"2026-03-09T13:53:52.242432","MEAN_MOTION":15.05633159,"ECCENTRICITY":0.0003972,"INCLINATION":97.5998,"RA_OF_ASC_NODE":285.4411,"ARG_OF_PERICENTER":100.2475,"MEAN_ANOMALY":259.92,"EPHEMERIS_TYPE":0,"CLASSIFICATION_TYPE":"U","NORAD_CAT_ID":64848,"ELEMENT_SET_NO":999,"REV_AT_EPOCH":3540,"BSTAR":-7.612e-7,"MEAN_MOTION_DOT":-7.2e-7,"MEAN_MOTION_DDOT":0},{"OBJECT_NAME":"TIUNGSAT-1 (MO-46)","OBJECT_ID":"2000-057D","EPOCH":"2026-03-09T15:36:52.176096","MEAN_MOTION":15.01128781,"ECCENTRICITY":0.003692,"INCLINATION":64.5465,"RA_OF_ASC_NODE":82.7132,"ARG_OF_PERICENTER":302.2682,"MEAN_ANOMALY":57.4857,"EPHEMERIS_TYPE":0,"CLASSIFICATION_TYPE":"U","NORAD_CAT_ID":26548,"ELEMENT_SET_NO":999,"REV_AT_EPOCH":38128,"BSTAR":0.00030184,"MEAN_MOTION_DOT":3.762e-5,"MEAN_MOTION_DDOT":0}]
